GLOBALSTAR M023         
1 25621U 99004A   24340.57389051  .00000021  00000+0  69617-3 0  9993
2 25621  52.0111 282.9953 0010568  59.5817 112.2653 12.62485901191279
GLOBALSTAR M040         
1 25622U 99004B   24340.63163218 -.00000033  00000+0  39846-3 0  9991
2 25622  51.9925 286.6839 0001107   4.9186 166.2365 12.61992511190814
GLOBALSTAR M036         
1 25623U 99004C   24340.45382198 -.00000024  00000+0  85420-3 0  9991
2 25623  51.9993  30.9547 0010908  43.6552 330.1496 11.86582435155984
GLOBALSTAR M038         
1 25624U 99004D   24340.54386622 -.00000044  00000+0  42310-3 0  9991
2 25624  51.9978 269.2381 0002478  22.6406 148.5326 12.32515243178498
GLOBALSTAR M022         
1 25649U 99012A   24340.63730834 -.00000030  00000+0  68499-3 0  9996
2 25649  52.0033  97.0540 0003200 138.3362 235.1627 12.02492641153171
GLOBALSTAR M041         
1 25650U 99012B   24340.35131240 -.00000066  00000+0  25137-3 0  9994
2 25650  52.0038 333.3767 0002114 303.9332  56.1304 11.96662242155077
GLOBALSTAR M046         
1 25651U 99012C   24340.52583995  .00000009  00000+0  10762-2 0  9995
2 25651  52.0080  54.5615 0002235 209.1638 164.8835 12.09403818160236
GLOBALSTAR M037         
1 25652U 99012D   24340.50860233 -.00000028  00000+0  42036-3 0  9999
2 25652  52.0021  53.8805 0002564 121.0906 252.2243 12.62428177186811
